[{"OBJECT_NAME":"STARLINK-6289","OBJECT_ID":"2023-061AL","EPOCH":"2026-03-09T09:47:43.071360","MEAN_MOTION":15.02531105,"ECCENTRICITY":0.00011609,"INCLINATION":43.0005,"RA_OF_ASC_NODE":185.8692,"ARG_OF_PERICENTER":251.5737,"MEAN_ANOMALY":108.4979,"EPHEMERIS_TYPE":0,"CLASSIFICATION_TYPE":"U","NORAD_CAT_ID":56408,"ELEMENT_SET_NO":999,"REV_AT_EPOCH":15686,"BSTAR":-1.8500547e-5,"MEAN_MOTION_DOT":-4.53e-6,"MEAN_MOTION_DDOT":0},{"OBJECT_NAME":"CZ-6A DEB","OBJECT_ID":"2022-151BB","EPOCH":"2026-03-09T17:16:48.853632","MEAN_MOTION":14.94828895,"ECCENTRICITY":0.00449007,"INCLINATION":98.6423,"RA_OF_ASC_NODE":141.5544,"ARG_OF_PERICENTER":201.6501,"MEAN_ANOMALY":158.2819,"EPHEMERIS_TYPE":0,"CLASSIFICATION_TYPE":"U","NORAD_CAT_ID":54308,"ELEMENT_SET_NO":999,"REV_AT_EPOCH":17599,"BSTAR":0.0053055882,"MEAN_MOTION_DOT":0.00059316,"MEAN_MOTION_DDOT":0}]
